IRIDIUM 166             
1 43570U 18061B   24352.37961308  .00000623  00000+0  21529-3 0  9990
2 43570  86.3960 285.2267 0001851  87.1855 272.9553 14.34221570335029
IRIDIUM 158             
1 43571U 18061C   24352.34789740  .00000370  00000+0  12498-3 0  9990
2 43571  86.3959 285.2495 0002073  77.5997 282.5431 14.34219797334993
IRIDIUM 165             
1 43572U 18061D   24351.81512094  .00000166  00000+0  52105-4 0  9991
2 43572  86.3961 285.5081 0002232  87.5989 272.5463 14.34218707334938
IRIDIUM 155             
1 43573U 18061E   24352.33521148  .00000407  00000+0  13819-3 0  9996
2 43573  86.3958 285.1869 0001877  79.8587 280.2820 14.34220020334986
IRIDIUM 154             
1 43574U 18061F   24351.82780021  .00000614  00000+0  21227-3 0  9999
2 43574  86.3963 285.5055 0002249  85.7678 274.3774 14.34218796334951
IRIDIUM 163             
1 43575U 18061G   24352.08785286  .00000094  00000+0  26360-4 0  9993
2 43575  86.3960 285.3297 0002110  80.3549 279.7885 14.34218164334962
IRIDIUM 156             
1 43576U 18061H   24352.06248349  .00000579  00000+0  19957-3 0  9997
2 43576  86.3958 285.3468 0001857  82.8688 277.2718 14.34213011334940
IRIDIUM 164             
1 43577U 18061J   24351.83414784  .00000554  00000+0  19057-3 0  9994
2 43577  86.3960 285.4739 0002140  91.8209 268.3232 14.34220308334962
